METEOR-M1                
1 35865U 09049A   19271.47042515  .00000013  00000-0  24529-4 0  9997
2 35865  98.4187 265.0276 0001422 214.0925 146.0163 14.22208628520537
METEOR-M2                
1 40069U 14037A   19271.34916227 -.00000035  00000-0  33481-5 0  9991
2 40069  98.5416 313.3259 0005312 335.4247  24.6678 14.20664821270858
METEOR-M2-2                
1 44387U 19038A   19271.49839902 -.00000046  00000-0 -11776-5 0  9990
2 44387  98.5794 232.3701 0001614 155.1776 204.9481 14.23334333 12125
